[{"OBJECT_NAME":"STARLINK-30935","OBJECT_ID":"2023-183U","EPOCH":"2025-11-30T02:23:57.668064","MEAN_MOTION":15.02532127,"ECCENTRICITY":8.94e-5,"INCLINATION":43.0032,"RA_OF_ASC_NODE":224.4354,"ARG_OF_PERICENTER":264.495,"MEAN_ANOMALY":95.579,"EPHEMERIS_TYPE":0,"CLASSIFICATION_TYPE":"U","NORAD_CAT_ID":58455,"ELEMENT_SET_NO":999,"REV_AT_EPOCH":11173,"BSTAR":-6.9198e-6,"MEAN_MOTION_DOT":-2.97e-6,"MEAN_MOTION_DDOT":0},{"OBJECT_NAME":"STARLINK-30960","OBJECT_ID":"2023-183V","EPOCH":"2025-11-30T00:00:02.000160","MEAN_MOTION":15.28928536,"ECCENTRICITY":0.0003519,"INCLINATION":43.0007,"RA_OF_ASC_NODE":164.1815,"ARG_OF_PERICENTER":278.0055,"MEAN_ANOMALY":81.1038,"EPHEMERIS_TYPE":0,"CLASSIFICATION_TYPE":"U","NORAD_CAT_ID":58456,"ELEMENT_SET_NO":999,"REV_AT_EPOCH":593,"BSTAR":0.0045949,"MEAN_MOTION_DOT":0.00133926,"MEAN_MOTION_DDOT":0},{"OBJECT_NAME":"STARLINK-30958","OBJECT_ID":"2023-183W","EPOCH":"2025-11-30T02:01:34.735584","MEAN_MOTION":15.02538899,"ECCENTRICITY":0.0001041,"INCLINATION":43.0021,"RA_OF_ASC_NODE":224.3251,"ARG_OF_PERICENTER":270.27,"MEAN_ANOMALY":89.8023,"EPHEMERIS_TYPE":0,"CLASSIFICATION_TYPE":"U","NORAD_CAT_ID":58457,"ELEMENT_SET_NO":999,"REV_AT_EPOCH":11173,"BSTAR":4.3144e-5,"MEAN_MOTION_DOT":3.79e-6,"MEAN_MOTION_DDOT":0},{"OBJECT_NAME":"STARLINK-30962","OBJECT_ID":"2023-183X","EPOCH":"2025-11-30T03:02:08.756736","MEAN_MOTION":15.02535913,"ECCENTRICITY":0.0001211,"INCLINATION":43.0021,"RA_OF_ASC_NODE":223.7838,"ARG_OF_PERICENTER":262.2605,"MEAN_ANOMALY":97.8099,"EPHEMERIS_TYPE":0,"CLASSIFICATION_TYPE":"U","NORAD_CAT_ID":58458,"ELEMENT_SET_NO":999,"REV_AT_EPOCH":11174,"BSTAR":5.1444e-6,"MEAN_MOTION_DOT":-1.34e-6,"MEAN_MOTION_DDOT":0},{"OBJECT_NAME":"STARLINK-30977","OBJECT_ID":"2023-183Y","EPOCH":"2025-11-30T02:19:09.435936","MEAN_MOTION":15.02549172,"ECCENTRICITY":0.0001032,"INCLINATION":43.0005,"RA_OF_ASC_NODE":224.4131,"ARG_OF_PERICENTER":274.4846,"MEAN_ANOMALY":85.5878,"EPHEMERIS_TYPE":0,"CLASSIFICATION_TYPE":"U","NORAD_CAT_ID":58459,"ELEMENT_SET_NO":999,"REV_AT_EPOCH":11173,"BSTAR":-6.994e-5,"MEAN_MOTION_DOT":-1.148e-5,"MEAN_MOTION_DDOT":0},{"OBJECT_NAME":"STARLINK-30947","OBJECT_ID":"2023-186A","EPOCH":"2025-11-30T01:52:25.584960","MEAN_MOTION":15.02534835,"ECCENTRICITY":0.0001056,"INCLINATION":43.0067,"RA_OF_ASC_NODE":249.033,"ARG_OF_PERICENTER":276.572,"MEAN_ANOMALY":83.5002,"EPHEMERIS_TYPE":0,"CLASSIFICATION_TYPE":"U","NORAD_CAT_ID":58473,"ELEMENT_SET_NO":999,"REV_AT_EPOCH":11086,"BSTAR":2.0429e-5,"MEAN_MOTION_DOT":7.2e-7,"MEAN_MOTION_DDOT":0},{"OBJECT_NAME":"STARLINK-30995","OBJECT_ID":"2023-186B","EPOCH":"2025-11-30T00:00:02.000160","MEAN_MOTION":15.32704441,"ECCENTRICITY":0.0005672,"INCLINATION":42.9987,"RA_OF_ASC_NODE":90.9069,"ARG_OF_PERICENTER":345.1314,"MEAN_ANOMALY":302.5575,"EPHEMERIS_TYPE":0,"CLASSIFICATION_TYPE":"U","NORAD_CAT_ID":58474,"ELEMENT_SET_NO":999,"REV_AT_EPOCH":588,"BSTAR":0.0023167,"MEAN_MOTION_DOT":0.00075233,"MEAN_MOTION_DDOT":0},{"OBJECT_NAME":"STARLINK-30941","OBJECT_ID":"2023-186C","EPOCH":"2025-11-30T03:18:33.652800","MEAN_MOTION":15.02534349,"ECCENTRICITY":0.0001088,"INCLINATION":43.0039,"RA_OF_ASC_NODE":248.62,"ARG_OF_PERICENTER":266.7365,"MEAN_ANOMALY":93.3353,"EPHEMERIS_TYPE":0,"CLASSIFICATION_TYPE":"U","NORAD_CAT_ID":58475,"ELEMENT_SET_NO":999,"REV_AT_EPOCH":11087,"BSTAR":1.2083e-5,"MEAN_MOTION_DOT":-4.0e-7,"MEAN_MOTION_DDOT":0},{"OBJECT_NAME":"STARLINK-30980","OBJECT_ID":"2023-186D","EPOCH":"2025-11-30T03:13:45.863040","MEAN_MOTION":15.02537009,"ECCENTRICITY":0.0001148,"INCLINATION":43.0036,"RA_OF_ASC_NODE":248.5932,"ARG_OF_PERICENTER":272.8142,"MEAN_ANOMALY":87.2569,"EPHEMERIS_TYPE":0,"CLASSIFICATION_TYPE":"U","NORAD_CAT_ID":58476,"ELEMENT_SET_NO":999,"REV_AT_EPOCH":11087,"BSTAR":5.5518e-5,"MEAN_MOTION_DOT":5.46e-6,"MEAN_MOTION_DDOT":0},{"OBJECT_NAME":"STARLINK-30965","OBJECT_ID":"2023-186E","EPOCH":"2025-11-30T02:53:21.352992","MEAN_MOTION":15.02540316,"ECCENTRICITY":0.0001245,"INCLINATION":43.0026,"RA_OF_ASC_NODE":235.4866,"ARG_OF_PERICENTER":267.9103,"MEAN_ANOMALY":92.1597,"EPHEMERIS_TYPE":0,"CLASSIFICATION_TYPE":"U","NORAD_CAT_ID":58477,"ELEMENT_SET_NO":999,"REV_AT_EPOCH":11102,"BSTAR":0.0001368,"MEAN_MOTION_DOT":1.645e-5,"MEAN_MOTION_DDOT":0},{"OBJECT_NAME":"STARLINK-30990","OBJECT_ID":"2023-186F","EPOCH":"2025-11-30T03:08:58.354080","MEAN_MOTION":15.02537423,"ECCENTRICITY":0.0001079,"INCLINATION":43.0041,"RA_OF_ASC_NODE":248.5689,"ARG_OF_PERICENTER":280.1608,"MEAN_ANOMALY":79.9113,"EPHEMERIS_TYPE":0,"CLASSIFICATION_TYPE":"U","NORAD_CAT_ID":58478,"ELEMENT_SET_NO":999,"REV_AT_EPOCH":11091,"BSTAR":5.9485e-5,"MEAN_MOTION_DOT":6.0e-6,"MEAN_MOTION_DDOT":0},{"OBJECT_NAME":"STARLINK-30984","OBJECT_ID":"2023-186H","EPOCH":"2025-11-30T03:37:33.813120","MEAN_MOTION":15.0253993,"ECCENTRICITY":9.76e-5,"INCLINATION":43.0022,"RA_OF_ASC_NODE":247.8542,"ARG_OF_PERICENTER":274.0887,"MEAN_ANOMALY":85.9844,"EPHEMERIS_TYPE":0,"CLASSIFICATION_TYPE":"U","NORAD_CAT_ID":58480,"ELEMENT_SET_NO":999,"REV_AT_EPOCH":11088,"BSTAR":6.2677e-5,"MEAN_MOTION_DOT":6.43e-6,"MEAN_MOTION_DDOT":0},{"OBJECT_NAME":"STARLINK-30956","OBJECT_ID":"2023-186J","EPOCH":"2025-11-30T02:25:27.366816","MEAN_MOTION":15.02531365,"ECCENTRICITY":9.64e-5,"INCLINATION":43.0009,"RA_OF_ASC_NODE":223.9215,"ARG_OF_PERICENTER":284.033,"MEAN_ANOMALY":76.0405,"EPHEMERIS_TYPE":0,"CLASSIFICATION_TYPE":"U","NORAD_CAT_ID":58481,"ELEMENT_SET_NO":999,"REV_AT_EPOCH":11115,"BSTAR":8.1981e-6,"MEAN_MOTION_DOT":-9.3e-7,"MEAN_MOTION_DDOT":0},{"OBJECT_NAME":"STARLINK-30997","OBJECT_ID":"2023-186K","EPOCH":"2025-11-30T02:25:48.760320","MEAN_MOTION":15.0254622,"ECCENTRICITY":2.62e-5,"INCLINATION":43.0021,"RA_OF_ASC_NODE":248.3136,"ARG_OF_PERICENTER":223.1617,"MEAN_ANOMALY":136.9205,"EPHEMERIS_TYPE":0,"CLASSIFICATION_TYPE":"U","NORAD_CAT_ID":58482,"ELEMENT_SET_NO":999,"REV_AT_EPOCH":11087,"BSTAR":0.00056809,"MEAN_MOTION_DOT":7.481e-5,"MEAN_MOTION_DDOT":0},{"OBJECT_NAME":"STARLINK-30994","OBJECT_ID":"2023-186L","EPOCH":"2025-11-29T18:37:05.930112","MEAN_MOTION":15.27589211,"ECCENTRICITY":0.0001039,"INCLINATION":43.0028,"RA_OF_ASC_NODE":104.4257,"ARG_OF_PERICENTER":241.9189,"MEAN_ANOMALY":118.1557,"EPHEMERIS_TYPE":0,"CLASSIFICATION_TYPE":"U","NORAD_CAT_ID":58483,"ELEMENT_SET_NO":999,"REV_AT_EPOCH":11252,"BSTAR":6.7951e-5,"MEAN_MOTION_DOT":1.609e-5,"MEAN_MOTION_DDOT":0},{"OBJECT_NAME":"STARLINK-30991","OBJECT_ID":"2023-186M","EPOCH":"2025-11-30T03:32:46.452768","MEAN_MOTION":15.02537223,"ECCENTRICITY":0.0001075,"INCLINATION":43.0033,"RA_OF_ASC_NODE":247.8278,"ARG_OF_PERICENTER":267.7321,"MEAN_ANOMALY":92.3398,"EPHEMERIS_TYPE":0,"CLASSIFICATION_TYPE":"U","NORAD_CAT_ID":58484,"ELEMENT_SET_NO":999,"REV_AT_EPOCH":11087,"BSTAR":2.0412e-5,"MEAN_MOTION_DOT":7.2e-7,"MEAN_MOTION_DDOT":0},{"OBJECT_NAME":"STARLINK-30979","OBJECT_ID":"2023-186N","EPOCH":"2025-11-30T02:59:22.559424","MEAN_MOTION":15.02536489,"ECCENTRICITY":0.0001073,"INCLINATION":43.004,"RA_OF_ASC_NODE":248.5185,"ARG_OF_PERICENTER":275.1772,"MEAN_ANOMALY":84.8948,"EPHEMERIS_TYPE":0,"CLASSIFICATION_TYPE":"U","NORAD_CAT_ID":58485,"ELEMENT_SET_NO":999,"REV_AT_EPOCH":11086,"BSTAR":6.5872e-5,"MEAN_MOTION_DOT":6.86e-6,"MEAN_MOTION_DDOT":0},{"OBJECT_NAME":"STARLINK-31005","OBJECT_ID":"2023-186P","EPOCH":"2025-11-30T02:54:35.115264","MEAN_MOTION":15.02538198,"ECCENTRICITY":0.0001055,"INCLINATION":43.0033,"RA_OF_ASC_NODE":248.4936,"ARG_OF_PERICENTER":269.2489,"MEAN_ANOMALY":90.8233,"EPHEMERIS_TYPE":0,"CLASSIFICATION_TYPE":"U","NORAD_CAT_ID":58486,"ELEMENT_SET_NO":999,"REV_AT_EPOCH":11086,"BSTAR":-1.7179e-5,"MEAN_MOTION_DOT":-4.36e-6,"MEAN_MOTION_DDOT":0},{"OBJECT_NAME":"STARLINK-30987","OBJECT_ID":"2023-186Q","EPOCH":"2025-11-30T02:49:47.313408","MEAN_MOTION":15.02535464,"ECCENTRICITY":9.87e-5,"INCLINATION":43.0033,"RA_OF_ASC_NODE":248.4666,"ARG_OF_PERICENTER":279.7788,"MEAN_ANOMALY":80.2943,"EPHEMERIS_TYPE":0,"CLASSIFICATION_TYPE":"U","NORAD_CAT_ID":58487,"ELEMENT_SET_NO":999,"REV_AT_EPOCH":11086,"BSTAR":3.5542e-5,"MEAN_MOTION_DOT":2.77e-6,"MEAN_MOTION_DDOT":0},{"OBJECT_NAME":"STARLINK-31000","OBJECT_ID":"2023-186R","EPOCH":"2025-11-30T02:44:59.508096","MEAN_MOTION":15.02538173,"ECCENTRICITY":0.0001041,"INCLINATION":43.002,"RA_OF_ASC_NODE":248.4408,"ARG_OF_PERICENTER":282.7902,"MEAN_ANOMALY":77.2824,"EPHEMERIS_TYPE":0,"CLASSIFICATION_TYPE":"U","NORAD_CAT_ID":58488,"ELEMENT_SET_NO":999,"REV_AT_EPOCH":11086,"BSTAR":0.00012587,"MEAN_MOTION_DOT":1.497e-5,"MEAN_MOTION_DDOT":0},{"OBJECT_NAME":"STARLINK-30993","OBJECT_ID":"2023-186S","EPOCH":"2025-11-30T01:04:28.401888","MEAN_MOTION":15.02532675,"ECCENTRICITY":8.6e-5,"INCLINATION":43.0002,"RA_OF_ASC_NODE":248.7797,"ARG_OF_PERICENTER":266.1815,"MEAN_ANOMALY":93.8929,"EPHEMERIS_TYPE":0,"CLASSIFICATION_TYPE":"U","NORAD_CAT_ID":58489,"ELEMENT_SET_NO":999,"REV_AT_EPOCH":11085,"BSTAR":-9.3512e-5,"MEAN_MOTION_DOT":-1.466e-5,"MEAN_MOTION_DDOT":0},{"OBJECT_NAME":"STARLINK-30978","OBJECT_ID":"2023-186T","EPOCH":"2025-11-30T02:35:24.076320","MEAN_MOTION":15.02541374,"ECCENTRICITY":0.0001079,"INCLINATION":43.0041,"RA_OF_ASC_NODE":248.3925,"ARG_OF_PERICENTER":264.1995,"MEAN_ANOMALY":95.8724,"EPHEMERIS_TYPE":0,"CLASSIFICATION_TYPE":"U","NORAD_CAT_ID":58490,"ELEMENT_SET_NO":999,"REV_AT_EPOCH":11086,"BSTAR":5.2333e-5,"MEAN_MOTION_DOT":5.03e-6,"MEAN_MOTION_DDOT":0},{"OBJECT_NAME":"STARLINK-30953","OBJECT_ID":"2023-186U","EPOCH":"2025-11-29T16:06:15.810048","MEAN_MOTION":15.27580211,"ECCENTRICITY":0.0001255,"INCLINATION":42.9991,"RA_OF_ASC_NODE":112.3484,"ARG_OF_PERICENTER":273.3029,"MEAN_ANOMALY":86.768,"EPHEMERIS_TYPE":0,"CLASSIFICATION_TYPE":"U","NORAD_CAT_ID":58491,"ELEMENT_SET_NO":999,"REV_AT_EPOCH":11259,"BSTAR":6.621e-5,"MEAN_MOTION_DOT":1.56e-5,"MEAN_MOTION_DDOT":0}]
